{"type": "FeatureCollection", "features": [ {"type": "Feature", "properties": {"norad_id": 64902, "name": "CO3D 2", "group": "resource", "lat": 46.34091954954547, "lon": -95.21743607561838, "alt_km": 501.0434411414017, "timestamp": "2025-12-26T20:30:45.591735+00:00", "meta": {"OBJECT_NAME": "CO3D 2", "OBJECT_ID": "2025-156D", "EPOCH": "2025-12-26T13:36:37.387296", "MEAN_MOTION": 15.20205411, "ECCENTRICITY": 8.063e-05, "INCLINATION": 97.4339, "RA_OF_ASC_NODE": 76.6347, "ARG_OF_PERICENTER": 62.3682, "MEAN_ANOMALY": 297.7635, "EPHEMERIS_TYPE": 0, "CLASSIFICATION_TYPE": "U", "NORAD_CAT_ID": 64902, "ELEMENT_SET_NO": 999, "REV_AT_EPOCH": 2330, "BSTAR": 0.00022918838, "MEAN_MOTION_DOT": 4.898e-05, "MEAN_MOTION_DDOT": 0}, "tle": {"line1": "1 64902U 25156D   25360.56709939  .00004898  00000+0  22919-3 0  9998", "line2": "2 64902  97.4339  76.6347 0000806  62.3682 297.7635 15.20205411 23300"}}, "geometry": {"type": "Point", "coordinates": [-95.21743607561838, 46.34091954954547]}}, {"type": "Feature", "properties": {"norad_id": 64903, "name": "CO3D 1", "group": "resource", "lat": 47.18748322007252, "lon": -94.97811054442327, "alt_km": 500.85773576181964, "timestamp": "2025-12-26T20:30:45.591744+00:00", "meta": {"OBJECT_NAME": "CO3D 1", "OBJECT_ID": "2025-156E", "EPOCH": "2025-12-26T12:02:03.647040", "MEAN_MOTION": 15.20191629, "ECCENTRICITY": 7.686e-05, "INCLINATION": 97.434, "RA_OF_ASC_NODE": 76.5713, "ARG_OF_PERICENTER": 74.426, "MEAN_ANOMALY": 285.706, "EPHEMERIS_TYPE": 0, "CLASSIFICATION_TYPE": "U", "NORAD_CAT_ID": 64903, "ELEMENT_SET_NO": 999, "REV_AT_EPOCH": 2329, "BSTAR": 0.0003276941, "MEAN_MOTION_DOT": 7.031e-05, "MEAN_MOTION_DDOT": 0}, "tle": {"line1": "1 64903U 25156E   25360.50143110  .00007031  00000+0  32769-3 0  9992", "line2": "2 64903  97.4340  76.5713 0000768  74.4260 285.7060 15.20191629 23294"}}, "geometry": {"type": "Point", "coordinates": [-94.97811054442327, 47.18748322007252]}}, {"type": "Feature", "properties": {"norad_id": 66514, "name": "SENTINEL-6B", "group": "resource", "lat": 18.299730836254422, "lon": 141.5731289160106, "alt_km": 1339.1319044957008, "timestamp": "2025-12-26T20:30:45.591754+00:00", "meta": {"OBJECT_NAME": "SENTINEL-6B", "OBJECT_ID": "2025-264A", "EPOCH": "2025-12-26T14:47:11.764896", "MEAN_MOTION": 12.80929558, "ECCENTRICITY": 0.00079125, "INCLINATION": 66.0401, "RA_OF_ASC_NODE": 133.6127, "ARG_OF_PERICENTER": 269.9703, "MEAN_ANOMALY": 90.0405, "EPHEMERIS_TYPE": 0, "CLASSIFICATION_TYPE": "U", "NORAD_CAT_ID": 66514, "ELEMENT_SET_NO": 999, "REV_AT_EPOCH": 506, "BSTAR": 6.7521188e-05, "MEAN_MOTION_DOT": -4.5e-07, "MEAN_MOTION_DDOT": 0}, "tle": {"line1": "1 66514U 25264A   25360.61610839 -.00000045  00000+0  67521-4 0  9995", "line2": "2 66514  66.0401 133.6127 0007912 269.9703  90.0405 12.80929558  5067"}}, "geometry": {"type": "Point", "coordinates": [141.5731289160106, 18.299730836254422]}}]}